[{"OBJECT_NAME":"YAOGAN-39 04A","OBJECT_ID":"2023-163A","EPOCH":"2026-03-06T06:05:45.530880","MEAN_MOTION":15.22966265,"ECCENTRICITY":0.00046272,"INCLINATION":34.9991,"RA_OF_ASC_NODE":272.0787,"ARG_OF_PERICENTER":162.7485,"MEAN_ANOMALY":197.3387,"EPHEMERIS_TYPE":0,"CLASSIFICATION_TYPE":"U","NORAD_CAT_ID":58141,"ELEMENT_SET_NO":999,"REV_AT_EPOCH":13187,"BSTAR":8.2738647e-5,"MEAN_MOTION_DOT":1.955e-5,"MEAN_MOTION_DDOT":0},{"OBJECT_NAME":"COSMOS 2573","OBJECT_ID":"2023-201A","EPOCH":"2026-03-10T00:09:51.763968","MEAN_MOTION":15.24110739,"ECCENTRICITY":0.00025748,"INCLINATION":97.6178,"RA_OF_ASC_NODE":16.7239,"ARG_OF_PERICENTER":58.72,"MEAN_ANOMALY":301.4289,"EPHEMERIS_TYPE":0,"CLASSIFICATION_TYPE":"U","NORAD_CAT_ID":58614,"ELEMENT_SET_NO":999,"REV_AT_EPOCH":12337,"BSTAR":0.00023292354,"MEAN_MOTION_DOT":5.586e-5,"MEAN_MOTION_DDOT":0}]
